ONEWEB-0566             
1 56061U 23043R   26137.01158396  .00000064  00000+0  12364-3 0  9990
2 56061  87.9248 250.1751 0001652  96.6872 263.4450 13.21825599154112
ONEWEB-0568             
1 56062U 23043S   26137.00416255 -.00000098  00000+0 -28974-3 0  9994
2 56062  87.9102 234.9627 0002132 108.6701 251.4662 13.16595755154870
ONEWEB-0574             
1 56063U 23043T   26136.77776599 -.00000004  00000+0 -40356-4 0  9994
2 56063  87.9257 250.2217 0002157 100.8366 259.3011 13.21826015154121
ONEWEB-0575             
1 56064U 23043U   26137.22583166 -.00000021  00000+0 -89205-4 0  9997
2 56064  87.9102 234.9151 0002470 103.4746 256.6660 13.16595844154897
ONEWEB-0576             
1 56065U 23043V   26136.97885008 -.00000032  00000+0 -11664-3 0  9994
2 56065  87.9109 234.9710 0002248 102.7228 257.4155 13.16595537154859
ONEWEB-0577             
1 56066U 23043W   26136.98517597 -.00000007  00000+0 -51823-4 0  9995
2 56066  87.9103 234.9671 0002782  98.9846 261.1600 13.16595704154881
ONEWEB-0578             
1 56067U 23043X   26137.06709735 -.00000108  00000+0 -29362-3 0  9997
2 56067  87.9251 250.1642 0002115 109.2271 250.9092 13.21824602154128
ONEWEB-0579             
1 56068U 23043Y   26137.05868353 -.00000069  00000+0 -19956-3 0  9993
2 56068  87.9255 250.1612 0001889  92.6902 267.4449 13.21824575154132
ONEWEB-0581             
1 56069U 23043Z   26136.99151647 -.00000014  00000+0 -69011-4 0  9995
2 56069  87.9106 234.9779 0002576  98.0226 262.1197 13.16594780154852
ONEWEB-0609             
1 56070U 23043AA  26137.14997728 -.00000196  00000+0 -55474-3 0  9991
2 56070  87.8978 265.3985 0001826 101.1777 258.9558 13.15546695152359
ONEWEB-0613             
1 56071U 23043AB  26137.07154910 -.00000053  00000+0 -17614-3 0  9998
2 56071  87.8980 265.4260 0001669  93.4843 266.6478 13.15546459152346
ONEWEB-0630             
1 56072U 23043AC  26136.76257850 -.00000079  00000+0 -24350-3 0  9994
2 56072  87.8980 265.4582 0001746  94.3910 265.7419 13.15548813152290
ONEWEB-0632             
1 56073U 23043AD  26137.06205032 -.00000100  00000+0 -29851-3 0  9990
2 56073  87.8982 265.4172 0002039  97.7239 262.4123 13.15549362152336
ONEWEB-0633             
1 56074U 23043AE  26137.13176348 -.00000026  00000+0 -10373-3 0  9992
2 56074  87.8991 265.3762 0001472  94.2119 265.9180 13.15548782152325
ONEWEB-0634             
1 56075U 23043AF  26136.81327473  .00000088  00000+0  19962-3 0  9993
2 56075  87.8983 265.4826 0001802 110.7861 249.3463 13.15549864152270
ONEWEB-0635             
1 56076U 23043AG  26136.80853759  .00000094  00000+0  21594-3 0  9995
2 56076  87.8990 265.4433 0002147  97.7736 262.3638 13.15548502152302
