[{"OBJECT_NAME":"ONEWEB-0566","OBJECT_ID":"2023-043R","EPOCH":"2026-05-17T00:16:40.854144","MEAN_MOTION":13.21825599,"ECCENTRICITY":0.0001652,"INCLINATION":87.9248,"RA_OF_ASC_NODE":250.1751,"ARG_OF_PERICENTER":96.6872,"MEAN_ANOMALY":263.445,"EPHEMERIS_TYPE":0,"CLASSIFICATION_TYPE":"U","NORAD_CAT_ID":56061,"ELEMENT_SET_NO":999,"REV_AT_EPOCH":15411,"BSTAR":0.00012364,"MEAN_MOTION_DOT":6.4e-07,"MEAN_MOTION_DDOT":0.0},{"OBJECT_NAME":"ONEWEB-0568","OBJECT_ID":"2023-043S","EPOCH":"2026-05-17T00:05:59.644320","MEAN_MOTION":13.16595755,"ECCENTRICITY":0.0002132,"INCLINATION":87.9102,"RA_OF_ASC_NODE":234.9627,"ARG_OF_PERICENTER":108.6701,"MEAN_ANOMALY":251.4662,"EPHEMERIS_TYPE":0,"CLASSIFICATION_TYPE":"U","NORAD_CAT_ID":56062,"ELEMENT_SET_NO":999,"REV_AT_EPOCH":15487,"BSTAR":-0.00028974000000000003,"MEAN_MOTION_DOT":-9.8e-07,"MEAN_MOTION_DDOT":0.0},{"OBJECT_NAME":"ONEWEB-0574","OBJECT_ID":"2023-043T","EPOCH":"2026-05-16T18:39:58.981536","MEAN_MOTION":13.21826015,"ECCENTRICITY":0.0002157,"INCLINATION":87.9257,"RA_OF_ASC_NODE":250.2217,"ARG_OF_PERICENTER":100.8366,"MEAN_ANOMALY":259.3011,"EPHEMERIS_TYPE":0,"CLASSIFICATION_TYPE":"U","NORAD_CAT_ID":56063,"ELEMENT_SET_NO":999,"REV_AT_EPOCH":15412,"BSTAR":-4.0356e-05,"MEAN_MOTION_DOT":-4e-08,"MEAN_MOTION_DDOT":0.0},{"OBJECT_NAME":"ONEWEB-0575","OBJECT_ID":"2023-043U","EPOCH":"2026-05-17T05:25:11.855424","MEAN_MOTION":13.16595844,"ECCENTRICITY":0.000247,"INCLINATION":87.9102,"RA_OF_ASC_NODE":234.9151,"ARG_OF_PERICENTER":103.4746,"MEAN_ANOMALY":256.666,"EPHEMERIS_TYPE":0,"CLASSIFICATION_TYPE":"U","NORAD_CAT_ID":56064,"ELEMENT_SET_NO":999,"REV_AT_EPOCH":15489,"BSTAR":-8.920500000000001e-05,"MEAN_MOTION_DOT":-2.1e-07,"MEAN_MOTION_DDOT":0.0},{"OBJECT_NAME":"ONEWEB-0576","OBJECT_ID":"2023-043V","EPOCH":"2026-05-16T23:29:32.646912","MEAN_MOTION":13.16595537,"ECCENTRICITY":0.0002248,"INCLINATION":87.9109,"RA_OF_ASC_NODE":234.971,"ARG_OF_PERICENTER":102.7228,"MEAN_ANOMALY":257.4155,"EPHEMERIS_TYPE":0,"CLASSIFICATION_TYPE":"U","NORAD_CAT_ID":56065,"ELEMENT_SET_NO":999,"REV_AT_EPOCH":15485,"BSTAR":-0.00011664,"MEAN_MOTION_DOT":-3.2e-07,"MEAN_MOTION_DDOT":0.0},{"OBJECT_NAME":"ONEWEB-0577","OBJECT_ID":"2023-043W","EPOCH":"2026-05-16T23:38:39.203808","MEAN_MOTION":13.16595704,"ECCENTRICITY":0.0002782,"INCLINATION":87.9103,"RA_OF_ASC_NODE":234.9671,"ARG_OF_PERICENTER":98.9846,"MEAN_ANOMALY":261.16,"EPHEMERIS_TYPE":0,"CLASSIFICATION_TYPE":"U","NORAD_CAT_ID":56066,"ELEMENT_SET_NO":999,"REV_AT_EPOCH":15488,"BSTAR":-5.1823e-05,"MEAN_MOTION_DOT":-7e-08,"MEAN_MOTION_DDOT":0.0},{"OBJECT_NAME":"ONEWEB-0578","OBJECT_ID":"2023-043X","EPOCH":"2026-05-17T01:36:37.211040","MEAN_MOTION":13.21824602,"ECCENTRICITY":0.0002115,"INCLINATION":87.9251,"RA_OF_ASC_NODE":250.1642,"ARG_OF_PERICENTER":109.2271,"MEAN_ANOMALY":250.9092,"EPHEMERIS_TYPE":0,"CLASSIFICATION_TYPE":"U","NORAD_CAT_ID":56067,"ELEMENT_SET_NO":999,"REV_AT_EPOCH":15412,"BSTAR":-0.00029362,"MEAN_MOTION_DOT":-1.08e-06,"MEAN_MOTION_DDOT":0.0},{"OBJECT_NAME":"ONEWEB-0579","OBJECT_ID":"2023-043Y","EPOCH":"2026-05-17T01:24:30.256992","MEAN_MOTION":13.21824575,"ECCENTRICITY":0.0001889,"INCLINATION":87.9255,"RA_OF_ASC_NODE":250.1612,"ARG_OF_PERICENTER":92.6902,"MEAN_ANOMALY":267.4449,"EPHEMERIS_TYPE":0,"CLASSIFICATION_TYPE":"U","NORAD_CAT_ID":56068,"ELEMENT_SET_NO":999,"REV_AT_EPOCH":15413,"BSTAR":-0.00019956,"MEAN_MOTION_DOT":-6.9e-07,"MEAN_MOTION_DDOT":0.0},{"OBJECT_NAME":"ONEWEB-0581","OBJECT_ID":"2023-043Z","EPOCH":"2026-05-16T23:47:47.023008","MEAN_MOTION":13.1659478,"ECCENTRICITY":0.0002576,"INCLINATION":87.9106,"RA_OF_ASC_NODE":234.9779,"ARG_OF_PERICENTER":98.0226,"MEAN_ANOMALY":262.1197,"EPHEMERIS_TYPE":0,"CLASSIFICATION_TYPE":"U","NORAD_CAT_ID":56069,"ELEMENT_SET_NO":999,"REV_AT_EPOCH":15485,"BSTAR":-6.901100000000001e-05,"MEAN_MOTION_DOT":-1.4e-07,"MEAN_MOTION_DDOT":0.0},{"OBJECT_NAME":"ONEWEB-0609","OBJECT_ID":"2023-043AA","EPOCH":"2026-05-17T03:35:58.036992","MEAN_MOTION":13.15546695,"ECCENTRICITY":0.0001826,"INCLINATION":87.8978,"RA_OF_ASC_NODE":265.3985,"ARG_OF_PERICENTER":101.1777,"MEAN_ANOMALY":258.9558,"EPHEMERIS_TYPE":0,"CLASSIFICATION_TYPE":"U","NORAD_CAT_ID":56070,"ELEMENT_SET_NO":999,"REV_AT_EPOCH":15235,"BSTAR":-0.0005547400000000001,"MEAN_MOTION_DOT":-1.96e-06,"MEAN_MOTION_DDOT":0.0},{"OBJECT_NAME":"ONEWEB-0613","OBJECT_ID":"2023-043AB","EPOCH":"2026-05-17T01:43:01.842240","MEAN_MOTION":13.15546459,"ECCENTRICITY":0.0001669,"INCLINATION":87.898,"RA_OF_ASC_NODE":265.426,"ARG_OF_PERICENTER":93.4843,"MEAN_ANOMALY":266.6478,"EPHEMERIS_TYPE":0,"CLASSIFICATION_TYPE":"U","NORAD_CAT_ID":56071,"ELEMENT_SET_NO":999,"REV_AT_EPOCH":15234,"BSTAR":-0.00017614,"MEAN_MOTION_DOT":-5.3e-07,"MEAN_MOTION_DDOT":0.0},{"OBJECT_NAME":"ONEWEB-0630","OBJECT_ID":"2023-043AC","EPOCH":"2026-05-16T18:18:06.782400","MEAN_MOTION":13.15548813,"ECCENTRICITY":0.0001746,"INCLINATION":87.898,"RA_OF_ASC_NODE":265.4582,"ARG_OF_PERICENTER":94.391,"MEAN_ANOMALY":265.7419,"EPHEMERIS_TYPE":0,"CLASSIFICATION_TYPE":"U","NORAD_CAT_ID":56072,"ELEMENT_SET_NO":999,"REV_AT_EPOCH":15229,"BSTAR":-0.0002435,"MEAN_MOTION_DOT":-7.9e-07,"MEAN_MOTION_DDOT":0.0},{"OBJECT_NAME":"ONEWEB-0632","OBJECT_ID":"2023-043AD","EPOCH":"2026-05-17T01:29:21.147648","MEAN_MOTION":13.15549362,"ECCENTRICITY":0.0002039,"INCLINATION":87.8982,"RA_OF_ASC_NODE":265.4172,"ARG_OF_PERICENTER":97.7239,"MEAN_ANOMALY":262.4123,"EPHEMERIS_TYPE":0,"CLASSIFICATION_TYPE":"U","NORAD_CAT_ID":56073,"ELEMENT_SET_NO":999,"REV_AT_EPOCH":15233,"BSTAR":-0.00029851,"MEAN_MOTION_DOT":-1e-06,"MEAN_MOTION_DDOT":0.0},{"OBJECT_NAME":"ONEWEB-0633","OBJECT_ID":"2023-043AE","EPOCH":"2026-05-17T03:09:44.364672","MEAN_MOTION":13.15548782,"ECCENTRICITY":0.0001472,"INCLINATION":87.8991,"RA_OF_ASC_NODE":265.3762,"ARG_OF_PERICENTER":94.2119,"MEAN_ANOMALY":265.918,"EPHEMERIS_TYPE":0,"CLASSIFICATION_TYPE":"U","NORAD_CAT_ID":56074,"ELEMENT_SET_NO":999,"REV_AT_EPOCH":15232,"BSTAR":-0.00010373000000000001,"MEAN_MOTION_DOT":-2.6e-07,"MEAN_MOTION_DDOT":0.0},{"OBJECT_NAME":"ONEWEB-0634","OBJECT_ID":"2023-043AF","EPOCH":"2026-05-16T19:31:06.936672","MEAN_MOTION":13.15549864,"ECCENTRICITY":0.0001802,"INCLINATION":87.8983,"RA_OF_ASC_NODE":265.4826,"ARG_OF_PERICENTER":110.7861,"MEAN_ANOMALY":249.3463,"EPHEMERIS_TYPE":0,"CLASSIFICATION_TYPE":"U","NORAD_CAT_ID":56075,"ELEMENT_SET_NO":999,"REV_AT_EPOCH":15227,"BSTAR":0.00019962,"MEAN_MOTION_DOT":8.8e-07,"MEAN_MOTION_DDOT":0.0},{"OBJECT_NAME":"ONEWEB-0635","OBJECT_ID":"2023-043AG","EPOCH":"2026-05-16T19:24:17.647776","MEAN_MOTION":13.15548502,"ECCENTRICITY":0.0002147,"INCLINATION":87.899,"RA_OF_ASC_NODE":265.4433,"ARG_OF_PERICENTER":97.7736,"MEAN_ANOMALY":262.3638,"EPHEMERIS_TYPE":0,"CLASSIFICATION_TYPE":"U","NORAD_CAT_ID":56076,"ELEMENT_SET_NO":999,"REV_AT_EPOCH":15230,"BSTAR":0.00021594,"MEAN_MOTION_DOT":9.4e-07,"MEAN_MOTION_DDOT":0.0}]